start=new Date('2022-05-17T00:00:00.000Z').valueOf();
sats=[{"PERIAPSIS":"545.109","COUNTRY_CODE":"US","OBJECT_TYPE":"PAYLOAD","REV_AT_EPOCH":"8202","CLASSIFICATION_TYPE":"U","ELEMENT_SET_NO":"999","BSTAR":"0.00021630000000","OBJECT_NAME":"STARLINK-1839","RCS_SIZE":"LARGE","OBJECT_ID":"2020-088J","REF_FRAME":"TEME","SITE":"AFETR","TLE_LINE2":"2 47130  53.0542  85.4698 0003039  48.4884 311.6365 15.06399974 82027","RA_OF_ASC_NODE":"85.4698","NORAD_CAT_ID":"47130","LAUNCH_DATE":"2020-11-25","GP_ID":"203704338","INCLINATION":"53.0542","CENTER_NAME":"EARTH","DECAY_DATE":null,"MEAN_ANOMALY":"311.6365","EPOCH":"2022-05-16T14:10:47.000064","TIME_SYSTEM":"UTC","MEAN_MOTION_DOT":"0.00002941","MEAN_MOTION_DDOT":"0.0000000000000","ARG_OF_PERICENTER":"48.4884","SEMIMAJOR_AXIS":"6925.349","ECCENTRICITY":"0.00030390","PERIOD":"95.592","MEAN_MOTION":"15.06399974","APOAPSIS":"549.318","TLE_LINE1":"1 47130U 20088J   22136.59082176  .00002941  00000-0  21630-3 0  9996","MEAN_ELEMENT_THEORY":"SGP4","FILE":"3448760","EPHEMERIS_TYPE":"0"},{"EPHEMERIS_TYPE":"0","FILE":"3448591","MEAN_ELEMENT_THEORY":"SGP4","APOAPSIS":"548.262","TLE_LINE1":"1 47133U 20088M   22136.53368155  .00001918  00000-0  14761-3 0  9997","MEAN_MOTION_DDOT":"0.0000000000000","ARG_OF_PERICENTER":"59.9193","TIME_SYSTEM":"UTC","EPOCH":"2022-05-16T12:48:30.085920","MEAN_MOTION_DOT":"0.00001918","SEMIMAJOR_AXIS":"6925.336","PERIOD":"95.592","ECCENTRICITY":"0.00015320","MEAN_MOTION":"15.06404020","CENTER_NAME":"EARTH","NORAD_CAT_ID":"47133","INCLINATION":"53.0564","GP_ID":"203698244","LAUNCH_DATE":"2020-11-25","DECAY_DATE":null,"MEAN_ANOMALY":"300.1947","CLASSIFICATION_TYPE":"U","BSTAR":"0.00014761000000","ELEMENT_SET_NO":"999","COUNTRY_CODE":"US","PERIAPSIS":"546.140","OBJECT_TYPE":"PAYLOAD","REV_AT_EPOCH":"8199","TLE_LINE2":"2 47133  53.0564  65.7301 0001532  59.9193 300.1947 15.06404020 81995","SITE":"AFETR","RA_OF_ASC_NODE":"65.7301","OBJECT_NAME":"STARLINK-1843","RCS_SIZE":"LARGE","OBJECT_ID":"2020-088M","REF_FRAME":"TEME"},{"MEAN_MOTION":"15.06403965","SEMIMAJOR_AXIS":"6925.336","PERIOD":"95.592","ECCENTRICITY":"0.00017990","MEAN_MOTION_DOT":"0.00000361","TIME_SYSTEM":"UTC","EPOCH":"2022-05-16T07:23:23.498304","ARG_OF_PERICENTER":"60.4889","MEAN_MOTION_DDOT":"0.0000000000000","APOAPSIS":"548.447","TLE_LINE1":"1 47134U 20088N   22136.30791086  .00000361  00000-0  43134-4 0  9994","MEAN_ELEMENT_THEORY":"SGP4","FILE":"3448591","EPHEMERIS_TYPE":"0","RCS_SIZE":"LARGE","REF_FRAME":"TEME","OBJECT_ID":"2020-088N","OBJECT_NAME":"STARLINK-1844","SITE":"AFETR","TLE_LINE2":"2 47134  53.0551  76.7513 0001799  60.4889 299.6279 15.06403965 81822","RA_OF_ASC_NODE":"76.7513","REV_AT_EPOCH":"8182","PERIAPSIS":"545.956","COUNTRY_CODE":"US","OBJECT_TYPE":"PAYLOAD","BSTAR":"0.00004313400000","ELEMENT_SET_NO":"999","CLASSIFICATION_TYPE":"U","DECAY_DATE":null,"MEAN_ANOMALY":"299.6279","LAUNCH_DATE":"2020-11-25","GP_ID":"203697985","INCLINATION":"53.0551","NORAD_CAT_ID":"47134","CENTER_NAME":"EARTH"},{"MEAN_MOTION_DDOT":"0.0000000000000","ARG_OF_PERICENTER":"58.1887","EPOCH":"2022-05-16T12:37:53.438016","TIME_SYSTEM":"UTC","MEAN_MOTION_DOT":"0.00000920","ECCENTRICITY":"0.00016420","PERIOD":"95.592","SEMIMAJOR_AXIS":"6925.339","MEAN_MOTION":"15.06403205","MEAN_ELEMENT_THEORY":"SGP4","FILE":"3448591","EPHEMERIS_TYPE":"0","TLE_LINE1":"1 47135U 20088P   22136.52631294  .00000920  00000-0  80644-4 0  9991","APOAPSIS":"548.341","CLASSIFICATION_TYPE":"U","BSTAR":"0.00008064400000","ELEMENT_SET_NO":"999","COUNTRY_CODE":"US","OBJECT_TYPE":"PAYLOAD","PERIAPSIS":"546.067","REV_AT_EPOCH":"8199","RA_OF_ASC_NODE":"65.7813","TLE_LINE2":"2 47135  53.0558  65.7813 0001642  58.1887 301.9262 15.06403205 81994","SITE":"AFETR","OBJECT_NAME":"STARLINK-1845","OBJECT_ID":"2020-088P","REF_FRAME":"TEME","RCS_SIZE":"LARGE","CENTER_NAME":"EARTH","NORAD_CAT_ID":"47135","GP_ID":"203697243","LAUNCH_DATE":"2020-11-25","INCLINATION":"53.0558","MEAN_ANOMALY":"301.9262","DECAY_DATE":null},{"MEAN_ANOMALY":"297.4205","DECAY_DATE":null,"CENTER_NAME":"EARTH","INCLINATION":"53.0565","GP_ID":"203697493","LAUNCH_DATE":"2020-11-25","NORAD_CAT_ID":"47136","RA_OF_ASC_NODE":"75.7893","SITE":"AFETR","TLE_LINE2":"2 47136  53.0565  75.7893 0001500  62.6937 297.4205 15.06397943 81853","REF_FRAME":"TEME","OBJECT_ID":"2020-088Q","RCS_SIZE":"LARGE","OBJECT_NAME":"STARLINK-1846","ELEMENT_SET_NO":"999","BSTAR":"0.00004516900000","CLASSIFICATION_TYPE":"U","REV_AT_EPOCH":"8185","COUNTRY_CODE":"US","OBJECT_TYPE":"PAYLOAD","PERIAPSIS":"546.181","MEAN_ELEMENT_THEORY":"SGP4","FILE":"3448591","EPHEMERIS_TYPE":"0","TLE_LINE1":"1 47136U 20088Q   22136.52539424  .00000391  00000-0  45169-4 0  9999","APOAPSIS":"548.259","MEAN_MOTION":"15.06397943","PERIOD":"95.592","ECCENTRICITY":"0.00015000","SEMIMAJOR_AXIS":"6925.355","MEAN_MOTION_DDOT":"0.0000000000000","ARG_OF_PERICENTER":"62.6937","MEAN_MOTION_DOT":"0.00000391","EPOCH":"2022-05-16T12:36:34.062336","TIME_SYSTEM":"UTC"},{"MEAN_MOTION":"15.06398439","SEMIMAJOR_AXIS":"6925.353","ECCENTRICITY":"0.00017330","PERIOD":"95.592","MEAN_MOTION_DOT":"0.00000867","TIME_SYSTEM":"UTC","EPOCH":"2022-05-16T12:11:21.717600","MEAN_MOTION_DDOT":"0.0000000000000","ARG_OF_PERICENTER":"54.0045","APOAPSIS":"548.419","TLE_LINE1":"1 47137U 20088R   22136.50789025  .00000867  00000-0  77076-4 0  9992","FILE":"3448591","EPHEMERIS_TYPE":"0","MEAN_ELEMENT_THEORY":"SGP4","RCS_SIZE":"LARGE","REF_FRAME":"TEME","OBJECT_ID":"2020-088R","OBJECT_NAME":"STARLINK-1849","SITE":"AFETR","TLE_LINE2":"2 47137  53.0561  65.8524 0001733  54.0045 306.1104 15.06398439 81996","RA_OF_ASC_NODE":"65.8524","REV_AT_EPOCH":"8199","PERIAPSIS":"546.018","COUNTRY_CODE":"US","OBJECT_TYPE":"PAYLOAD","ELEMENT_SET_NO":"999","BSTAR":"0.00007707600000","CLASSIFICATION_TYPE":"U","DECAY_DATE":null,"MEAN_ANOMALY":"306.1104","GP_ID":"203697745","INCLINATION":"53.0561","LAUNCH_DATE":"2020-11-25","NORAD_CAT_ID":"47137","CENTER_NAME":"EARTH"},{"MEAN_MOTION_DDOT":"0.0000000000000","ARG_OF_PERICENTER":"44.1499","MEAN_MOTION_DOT":"0.00001163","EPOCH":"2022-05-16T12:59:45.413376","TIME_SYSTEM":"UTC","MEAN_MOTION":"15.06402385","PERIOD":"95.592","ECCENTRICITY":"0.00020960","SEMIMAJOR_AXIS":"6925.341","FILE":"3448591","MEAN_ELEMENT_THEORY":"SGP4","EPHEMERIS_TYPE":"0","TLE_LINE1":"1 47138U 20088S   22136.54149784  .00001163  00000-0  96949-4 0  9999","APOAPSIS":"548.658","ELEMENT_SET_NO":"999","BSTAR":"0.00009694900000","CLASSIFICATION_TYPE":"U","REV_AT_EPOCH":"8193","COUNTRY_CODE":"US","PERIAPSIS":"545.755","OBJECT_TYPE":"PAYLOAD","RA_OF_ASC_NODE":"70.7162","TLE_LINE2":"2 47138  53.0572  70.7162 0002096  44.1499 315.9657 15.06402385 81939","SITE":"AFETR","REF_FRAME":"TEME","OBJECT_ID":"2020-088S","RCS_SIZE":"LARGE","OBJECT_NAME":"STARLINK-1850","CENTER_NAME":"EARTH","GP_ID":"203698484","INCLINATION":"53.0572","LAUNCH_DATE":"2020-11-25","NORAD_CAT_ID":"47138","MEAN_ANOMALY":"315.9657","DECAY_DATE":null},{"DECAY_DATE":null,"MEAN_ANOMALY":"309.5653","CENTER_NAME":"EARTH","NORAD_CAT_ID":"47139","INCLINATION":"53.0548","GP_ID":"203705141","LAUNCH_DATE":"2020-11-25","SITE":"AFETR","TLE_LINE2":"2 47139  53.0548  79.2386 0001889  50.5503 309.5653 15.06399652 82131","RA_OF_ASC_NODE":"79.2386","OBJECT_NAME":"STARLINK-1852","RCS_SIZE":"LARGE","OBJECT_ID":"2020-088T","REF_FRAME":"TEME","CLASSIFICATION_TYPE":"U","BSTAR":"-0.00003210500000","ELEMENT_SET_NO":"999","COUNTRY_CODE":"US","PERIAPSIS":"545.906","OBJECT_TYPE":"PAYLOAD","REV_AT_EPOCH":"8213","FILE":"3448784","EPHEMERIS_TYPE":"0","MEAN_ELEMENT_THEORY":"SGP4","APOAPSIS":"548.523","TLE_LINE1":"1 47139U 20088T   22136.86862510 -.00000760  00000-0 -32105-4 0  9992","SEMIMAJOR_AXIS":"6925.350","ECCENTRICITY":"0.00018890","PERIOD":"95.592","MEAN_MOTION":"15.06399652","MEAN_MOTION_DDOT":"0.0000000000000","ARG_OF_PERICENTER":"50.5503","EPOCH":"2022-05-16T20:50:49.208640","TIME_SYSTEM":"UTC","MEAN_MOTION_DOT":"-0.00000760"},{"REV_AT_EPOCH":"8196","OBJECT_TYPE":"PAYLOAD","COUNTRY_CODE":"US","PERIAPSIS":"546.097","BSTAR":"0.00006527200000","ELEMENT_SET_NO":"999","CLASSIFICATION_TYPE":"U","REF_FRAME":"TEME","OBJECT_ID":"2020-088V","RCS_SIZE":"LARGE","OBJECT_NAME":"STARLINK-1854","RA_OF_ASC_NODE":"66.8731","SITE":"AFETR","TLE_LINE2":"2 47141  53.0563  66.8731 0001632  65.0138 295.1021 15.06395437 81964","GP_ID":"203696994","INCLINATION":"53.0563","LAUNCH_DATE":"2020-11-25","NORAD_CAT_ID":"47141","CENTER_NAME":"EARTH","MEAN_ANOMALY":"295.1021","DECAY_DATE":null,"MEAN_MOTION_DOT":"0.00000691","EPOCH":"2022-05-16T06:47:35.056032","TIME_SYSTEM":"UTC","MEAN_MOTION_DDOT":"0.0000000000000","ARG_OF_PERICENTER":"65.0138","MEAN_MOTION":"15.06395437","ECCENTRICITY":"0.00016320","PERIOD":"95.592","SEMIMAJOR_AXIS":"6925.363","TLE_LINE1":"1 47141U 20088V   22136.28304463  .00000691  00000-0  65272-4 0  9991","APOAPSIS":"548.358","FILE":"3448591","EPHEMERIS_TYPE":"0","MEAN_ELEMENT_THEORY":"SGP4"},{"MEAN_MOTION_DDOT":"0.0000000000000","ARG_OF_PERICENTER":"55.9994","TIME_SYSTEM":"UTC","EPOCH":"2022-05-16T19:05:21.372000","MEAN_MOTION_DOT":"0.00000310","SEMIMAJOR_AXIS":"6925.335","PERIOD":"95.592","ECCENTRICITY":"0.00016480","MEAN_MOTION":"15.06404565","EPHEMERIS_TYPE":"0","FILE":"3448787","MEAN_ELEMENT_THEORY":"SGP4","APOAPSIS":"548.341","TLE_LINE1":"1 47143U 20088X   22136.79538625  .00000310  00000-0  39739-4 0  9995","CLASSIFICATION_TYPE":"U","BSTAR":"0.00003973900000","ELEMENT_SET_NO":"999","PERIAPSIS":"546.058","COUNTRY_CODE":"US","OBJECT_TYPE":"PAYLOAD","REV_AT_EPOCH":"8232","TLE_LINE2":"2 47143  53.0566  64.5531 0001648  55.9994 304.1151 15.06404565 82326","SITE":"AFETR","RA_OF_ASC_NODE":"64.5531","OBJECT_NAME":"STARLINK-1856","RCS_SIZE":"LARGE","REF_FRAME":"TEME","OBJECT_ID":"2020-088X","CENTER_NAME":"EARTH","NORAD_CAT_ID":"47143","INCLINATION":"53.0566","GP_ID":"203705189","LAUNCH_DATE":"2020-11-25","DECAY_DATE":null,"MEAN_ANOMALY":"304.1151"}];
